{
  "type": "FeatureCollection",
  "features": [
    {
      "type": "Feature",
      "properties": {
        "norad_id": 44333,
        "name": "AT&T T-16",
        "group": "intelsat",
        "lat": 0.0016194028827030225,
        "lon": -133.0622393114226,
        "alt_km": 35786.15674185049,
        "timestamp": "2025-12-26T15:29:39.106187+00:00",
        "meta_object_name": "AT&T T-16",
        "meta_object_id": "2019-034A",
        "meta_epoch": "2025-12-25T10:42:38.666304",
        "meta_mean_motion": 1.00270684,
        "meta_eccentricity": 7.98e-05,
        "meta_inclination": 0.0229,
        "meta_ra_of_asc_node": 69.9127,
        "meta_arg_of_pericenter": 71.5572,
        "meta_mean_anomaly": 12.5365,
        "meta_ephemeris_type": 0,
        "meta_classification_type": "U",
        "meta_norad_cat_id": 44333,
        "meta_element_set_no": 999,
        "meta_rev_at_epoch": 2389,
        "meta_bstar": 0,
        "meta_mean_motion_dot": -9.4e-07,
        "meta_mean_motion_ddot": 0,
        "tle_line1": "1 44333U 19034A   25359.44628086 -.00000094  00000+0  00000+0 0  9998",
        "tle_line2": "2 44333   0.0229  69.9127 0000798  71.5572  12.5365  1.00270684 23899"
      },
      "geometry": {
        "type": "Point",
        "coordinates": [
          -133.0622393114226,
          0.0016194028827030225
        ]
      }
    },
    {
      "type": "Feature",
      "properties": {
        "norad_id": 44476,
        "name": "INTELSAT 39 (IS-39)",
        "group": "intelsat",
        "lat": 0.002288476137755263,
        "lon": 29.735498126917953,
        "alt_km": 35788.34447611201,
        "timestamp": "2025-12-26T15:29:39.106199+00:00",
        "meta_object_name": "INTELSAT 39 (IS-39)",
        "meta_object_id": "2019-049B",
        "meta_epoch": "2025-12-26T02:18:38.819232",
        "meta_mean_motion": 1.00272077,
        "meta_eccentricity": 9.315e-05,
        "meta_inclination": 0.0019,
        "meta_ra_of_asc_node": 36.1159,
        "meta_arg_of_pericenter": 121.2082,
        "meta_mean_anomaly": 34.1336,
        "meta_ephemeris_type": 0,
        "meta_classification_type": "U",
        "meta_norad_cat_id": 44476,
        "meta_element_set_no": 999,
        "meta_rev_at_epoch": 2339,
        "meta_bstar": 0,
        "meta_mean_motion_dot": 5.5e-07,
        "meta_mean_motion_ddot": 0,
        "tle_line1": "1 44476U 19049B   25360.09628263  .00000055  00000+0  00000+0 0  9998",
        "tle_line2": "2 44476   0.0019  36.1159 0000931 121.2082  34.1336  1.00272077 23394"
      },
      "geometry": {
        "type": "Point",
        "coordinates": [
          29.735498126917953,
          0.002288476137755263
        ]
      }
    },
    {
      "type": "Feature",
      "properties": {
        "norad_id": 46114,
        "name": "GALAXY 30 (G-30)",
        "group": "intelsat",
        "lat": -0.0023514930441909487,
        "lon": -157.23529086898472,
        "alt_km": 35783.318620396996,
        "timestamp": "2025-12-26T15:29:39.106210+00:00",
        "meta_object_name": "GALAXY 30 (G-30)",
        "meta_object_id": "2020-056C",
        "meta_epoch": "2025-12-26T05:46:42.761280",
        "meta_mean_motion": 1.0027102,
        "meta_eccentricity": 0.00023411,
        "meta_inclination": 0.0016,
        "meta_ra_of_asc_node": 22.3625,
        "meta_arg_of_pericenter": 253.0732,
        "meta_mean_anomaly": 141.2291,
        "meta_ephemeris_type": 0,
        "meta_classification_type": "U",
        "meta_norad_cat_id": 46114,
        "meta_element_set_no": 999,
        "meta_rev_at_epoch": 1955,
        "meta_bstar": 0,
        "meta_mean_motion_dot": 5.9e-07,
        "meta_mean_motion_ddot": 0,
        "tle_line1": "1 46114U 20056C   25360.24077270  .00000059  00000+0  00000+0 0  9996",
        "tle_line2": "2 46114   0.0016  22.3625 0002341 253.0732 141.2291  1.00271020 19550"
      },
      "geometry": {
        "type": "Point",
        "coordinates": [
          -157.23529086898472,
          -0.0023514930441909487
        ]
      }
    },
    {
      "type": "Feature",
      "properties": {
        "norad_id": 54026,
        "name": "GALAXY 33 (G-33)",
        "group": "intelsat",
        "lat": -0.010614524823550499,
        "lon": -165.21025709446815,
        "alt_km": 35783.46655496954,
        "timestamp": "2025-12-26T15:29:39.106222+00:00",
        "meta_object_name": "GALAXY 33 (G-33)",
        "meta_object_id": "2022-128A",
        "meta_epoch": "2025-12-24T04:31:51.326400",
        "meta_mean_motion": 1.00272122,
        "meta_eccentricity": 0.0001643,
        "meta_inclination": 0.0126,
        "meta_ra_of_asc_node": 315.9231,
        "meta_arg_of_pericenter": 309.5058,
        "meta_mean_anomaly": 122.5078,
        "meta_ephemeris_type": 0,
        "meta_classification_type": "U",
        "meta_norad_cat_id": 54026,
        "meta_element_set_no": 999,
        "meta_rev_at_epoch": 1198,
        "meta_bstar": 0,
        "meta_mean_motion_dot": 1e-06,
        "meta_mean_motion_ddot": 0,
        "tle_line1": "1 54026U 22128A   25358.18878850  .00000100  00000+0  00000+0 0  9999",
        "tle_line2": "2 54026   0.0126 315.9231 0001643 309.5058 122.5078  1.00272122 11987"
      },
      "geometry": {
        "type": "Point",
        "coordinates": [
          -165.21025709446815,
          -0.010614524823550499
        ]
      }
    },
    {
      "type": "Feature",
      "properties": {
        "norad_id": 54027,
        "name": "GALAXY 34 (G-34)",
        "group": "intelsat",
        "lat": -0.005519262244805642,
        "lon": -161.1838428236884,
        "alt_km": 35783.87982530443,
        "timestamp": "2025-12-26T15:29:39.106246+00:00",
        "meta_object_name": "GALAXY 34 (G-34)",
        "meta_object_id": "2022-128B",
        "meta_epoch": "2025-12-26T05:44:45.836160",
        "meta_mean_motion": 1.00270295,
        "meta_eccentricity": 0.0001789,
        "meta_inclination": 0.0226,
        "meta_ra_of_asc_node": 12.0024,
        "meta_arg_of_pericenter": 256.7619,
        "meta_mean_anomaly": 143.4581,
        "meta_ephemeris_type": 0,
        "meta_classification_type": "U",
        "meta_norad_cat_id": 54027,
        "meta_element_set_no": 999,
        "meta_rev_at_epoch": 1217,
        "meta_bstar": 0,
        "meta_mean_motion_dot": 0,
        "meta_mean_motion_ddot": 0,
        "tle_line1": "1 54027U 22128B   25360.23941940  .00000000  00000+0  00000+0 0  9999",
        "tle_line2": "2 54027   0.0226  12.0024 0001789 256.7619 143.4581  1.00270295 12173"
      },
      "geometry": {
        "type": "Point",
        "coordinates": [
          -161.1838428236884,
          -0.005519262244805642
        ]
      }
    },
    {
      "type": "Feature",
      "properties": {
        "norad_id": 54243,
        "name": "GALAXY 31 (G-31)",
        "group": "intelsat",
        "lat": 0.001962014788216229,
        "lon": -153.2297381493549,
        "alt_km": 35784.736041986274,
        "timestamp": "2025-12-26T15:29:39.106260+00:00",
        "meta_object_name": "GALAXY 31 (G-31)",
        "meta_object_id": "2022-153A",
        "meta_epoch": "2025-12-26T05:50:54.375360",
        "meta_mean_motion": 1.00271149,
        "meta_eccentricity": 0.00017637,
        "meta_inclination": 0.0129,
        "meta_ra_of_asc_node": 186.4349,
        "meta_arg_of_pericenter": 98.7851,
        "meta_mean_anomaly": 136.4956,
        "meta_ephemeris_type": 0,
        "meta_classification_type": "U",
        "meta_norad_cat_id": 54243,
        "meta_element_set_no": 999,
        "meta_rev_at_epoch": 539,
        "meta_bstar": 0,
        "meta_mean_motion_dot": 3.5e-07,
        "meta_mean_motion_ddot": 0,
        "tle_line1": "1 54243U 22153A   25360.24368490  .00000035  00000+0  00000+0 0  9999",
        "tle_line2": "2 54243   0.0129 186.4349 0001763  98.7851 136.4956  1.00271149  5398"
      },
      "geometry": {
        "type": "Point",
        "coordinates": [
          -153.2297381493549,
          0.001962014788216229
        ]
      }
    },
    {
      "type": "Feature",
      "properties": {
        "norad_id": 54244,
        "name": "GALAXY 32 (G-32)",
        "group": "intelsat",
        "lat": -0.019127122137029415,
        "lon": -123.22265382808517,
        "alt_km": 35784.38554699239,
        "timestamp": "2025-12-26T15:29:39.106272+00:00",
        "meta_object_name": "GALAXY 32 (G-32)",
        "meta_object_id": "2022-153B",
        "meta_epoch": "2025-12-24T22:56:22.028928",
        "meta_mean_motion": 1.00272509,
        "meta_eccentricity": 0.0001992,
        "meta_inclination": 0.0091,
        "meta_ra_of_asc_node": 20.8495,
        "meta_arg_of_pericenter": 295.2988,
        "meta_mean_anomaly": 30.6679,
        "meta_ephemeris_type": 0,
        "meta_classification_type": "U",
        "meta_norad_cat_id": 54244,
        "meta_element_set_no": 999,
        "meta_rev_at_epoch": 1139,
        "meta_bstar": 0,
        "meta_mean_motion_dot": -1.53e-06,
        "meta_mean_motion_ddot": 0,
        "tle_line1": "1 54244U 22153B   25358.95581052 -.00000153  00000+0  00000+0 0  9998",
        "tle_line2": "2 54244   0.0091  20.8495 0001992 295.2988  30.6679  1.00272509 11394"
      },
      "geometry": {
        "type": "Point",
        "coordinates": [
          -123.22265382808517,
          -0.019127122137029415
        ]
      }
    }
  ]
}